NORAD_CAT_ID,OBJECT_NAME,OBJECT_TYPE,EPOCH,MEAN_MOTION,ECCENTRICITY,INCLINATION,RA_OF_ASC_NODE,ARG_OF_PERICENTER,MEAN_ANOMALY,BSTAR,MEAN_MOTION_DOT,MEAN_MOTION_DDOT,TLE_LINE0,TLE_LINE1,TLE_LINE2,SEMIMAJOR_AXIS,PERIOD,APOGEE,PERIGEE,DECAYED
54194.0,STARLINK-5271,PAYLOAD,2023-01-26 06:00:00,15.08887595,0.0001825,53.2159,64.7306,87.6932,238.5228,-0.0033366,-0.00053069,0.0,0 STARLINK-5271,1 54194U 22141AP  23026.25001157 -.00053069  00000-0 -33366-2 0  9995,2 54194  53.2159  64.7306 0001825  87.6932 238.5228 15.08887595 14367,6917.735,95.435,540.862,538.337,0.0
54194.0,STARLINK-5271,PAYLOAD,2023-01-26 14:00:01,15.08822461,0.0001813,53.2156,63.2351,85.6093,252.2441,0.0025375999999999,0.0004031,0.0,0 STARLINK-5271,1 54194U 22141AP  23026.58334491  .00040310  00000-0  25376-2 0  9996,2 54194  53.2156  63.2351 0001813  85.6093 252.2441 15.08822461  1302,6917.934,95.439,541.053,538.545,0.0
54194.0,STARLINK-5271,PAYLOAD,2023-01-27 00:00:00,15.08824988,0.0001778,53.2158,61.3625,96.4783,345.8707,0.0040399,0.0006457,0.0,0 STARLINK-5271,1 54194U 22141AP  23027.00001157  .00064570  00000-0  40399-2 0  9990,2 54194  53.2158  61.3625 0001778  96.4783 345.8707 15.08824988 14475,6917.926,95.439,541.021,538.561,0.0
54194.0,STARLINK-5271,PAYLOAD,2023-01-27 14:00:01,15.08812357,0.0001516,53.2156,58.7456,87.8339,284.851,0.00095658,0.00014957,0.0,0 STARLINK-5271,1 54194U 22141AP  23027.58334491  .00014957  00000-0  95658-3 0  9996,2 54194  53.2156  58.7456 0001516  87.8339 284.8510 15.08812357 14567,6917.965,95.439,540.879,538.781,0.0
54194.0,STARLINK-5271,PAYLOAD,2023-01-27 22:00:00,15.08795842,0.0001469,53.2158,57.2476,98.6001,285.6615,0.0037391999999999,0.00059653,0.0,0 STARLINK-5271,1 54194U 22141AP  23027.91667824  .00059653  00000-0  37392-2 0  9994,2 54194  53.2158  57.2476 0001469  98.6001 285.6615 15.08795842  1300,6918.015,95.44,540.8969999999999,538.864,0.0
54194.0,STARLINK-5271,PAYLOAD,2023-01-28 10:36:43,15.08839881,0.0001767,53.2172,54.889,94.7054,265.414,-4.891e-05,-1.066e-05,0.0,0 STARLINK-5271,1 54194U 22141AP  23028.44216491 -.00001066  00000-0 -48910-4 0  9990,2 54194  53.2172  54.8890 0001767  94.7054 265.4140 15.08839881 14467,6917.881,95.438,540.968,538.523,0.0
54194.0,STARLINK-5271,PAYLOAD,2023-01-28 18:33:38,15.08841574,0.0001745,53.2174,53.4026,94.6753,265.4438,-1.4231e-05,-5.15e-06,0.0,0 STARLINK-5271,1 54194U 22141AP  23028.77336214 -.00000515  00000-0 -14231-4 0  9999,2 54194  53.2174  53.4026 0001745  94.6753 265.4438 15.08841574 14749,6917.876,95.437,540.948,538.533,0.0
54194.0,STARLINK-5271,PAYLOAD,2023-01-29 08:52:06,15.08848547,0.000173,53.2174,50.7258,94.6676,265.4513,6.4297e-06,-1.86e-06,0.0,0 STARLINK-5271,1 54194U 22141AP  23029.36951567 -.00000186  00000-0  64297-5 0  9990,2 54194  53.2174  50.7258 0001730  94.6676 265.4513 15.08848547 14835,6917.854,95.437,540.916,538.522,0.0
54194.0,STARLINK-5271,PAYLOAD,2023-01-29 18:24:25,15.08843073,0.0001775,53.2177,48.9414,85.4588,274.6607,-6.6368e-05,-1.344e-05,0.0,0 STARLINK-5271,1 54194U 22141AP  23029.76696026 -.00001344  00000-0 -66368-4 0  9998,2 54194  53.2177  48.9414 0001775  85.4588 274.6607 15.08843073 14891,6917.871,95.437,540.964,538.508,0.0
54194.0,STARLINK-5271,PAYLOAD,2023-01-30 05:32:07,15.08833436,0.0001521,53.2173,46.8607,78.2551,281.8612,1.3197e-05,-7.8e-07,0.0,0 STARLINK-5271,1 54194U 22141AP  23030.23064544 -.00000078  00000-0  13197-4 0  9990,2 54194  53.2173  46.8607 0001521  78.2551 281.8612 15.08833436 14963,6917.9,95.438,540.818,538.713,0.0
54194.0,STARLINK-5271,PAYLOAD,2023-01-30 08:42:53,15.08835916,0.0001666,53.2176,46.2653,85.8264,274.2919,2.1918e-05,6.1e-07,0.0,0 STARLINK-5271,1 54194U 22141AP  23030.36312398  .00000061  00000-0  21918-4 0  9998,2 54194  53.2176  46.2653 0001666  85.8264 274.2919 15.08835916 14754,6917.893,95.438,540.91,538.605,0.0
54194.0,STARLINK-5271,PAYLOAD,2023-01-30 18:15:12,15.08840091,0.0001694,53.2177,44.4813,83.4935,276.625,1.6636e-05,-2.3e-07,0.0,0 STARLINK-5271,1 54194U 22141AP  23030.76056167 -.00000023  00000-0  16636-4 0  9991,2 54194  53.2177  44.4813 0001694  83.4935 276.6250 15.08840091 15040,6917.88,95.438,540.917,538.573,0.0
54194.0,STARLINK-5271,PAYLOAD,2023-01-31 06:58:17,15.08841269,0.0001734,53.2177,42.1024,82.133,277.9859,7.1498e-06,-1.74e-06,0.0,0 STARLINK-5271,1 54194U 22141AP  23031.29048080 -.00000174  00000-0  71498-5 0  9990,2 54194  53.2177  42.1024 0001734  82.1330 277.9859 15.08841269 14898,6917.877,95.437,540.941,538.542,0.0
54194.0,STARLINK-5271,PAYLOAD,2023-01-31 18:05:59,15.08843971,0.0001807,53.2182,40.022,79.3694,280.7501,3.6648e-05,2.95e-06,0.0,0 STARLINK-5271,1 54194U 22141AP  23031.75415663  .00000295  00000-0  36648-4 0  9996,2 54194  53.2182  40.0220 0001807  79.3694 280.7501 15.08843971 14967,6917.868,95.437,540.983,538.483,0.0
54194.0,STARLINK-5271,PAYLOAD,2023-02-01 00:27:31,15.08838173,0.0001807,53.2178,38.8326,80.1809,279.9387,3.7411e-05,3.07e-06,0.0,0 STARLINK-5271,1 54194U 22141AP  23032.01911967  .00000307  00000-0  37411-4 0  9997,2 54194  53.2178  38.8326 0001807  80.1809 279.9387 15.08838173 15233,6917.886,95.438,541.001,538.501,0.0
54194.0,STARLINK-5271,PAYLOAD,2023-02-01 06:49:04,15.08842295,0.0001679,53.2176,37.642,89.5447,270.5738,6.9367e-05,8.16e-06,0.0,0 STARLINK-5271,1 54194U 22141AP  23032.28407490  .00000816  00000-0  69367-4 0  9997,2 54194  53.2176  37.6420 0001679  89.5447 270.5738 15.08842295 15047,6917.873,95.437,540.9,538.577,0.0
54194.0,STARLINK-5271,PAYLOAD,2023-02-02 03:29:05,15.08836543,0.000167,53.2169,33.7757,89.1525,270.9658,-5.2255e-05,-1.12e-05,0.0,0 STARLINK-5271,1 54194U 22141AP  23033.14520284 -.00001120  00000-0 -52255-4 0  9999,2 54194  53.2169  33.7757 0001670  89.1525 270.9658 15.08836543 15407,6917.891,95.438,540.911,538.601,0.0
54194.0,STARLINK-5271,PAYLOAD,2023-02-02 09:50:37,15.08838755,0.0001622,53.2177,32.5857,100.3159,259.8016,-2.6322e-05,-7.07e-06,0.0,0 STARLINK-5271,1 54194U 22141AP  23033.41016013 -.00000707  00000-0 -26322-4 0  9995,2 54194  53.2177  32.5857 0001622 100.3159 259.8016 15.08838755 15210,6917.884,95.438,540.871,538.627,0.0
54194.0,STARLINK-5271,PAYLOAD,2023-02-03 06:30:38,15.08843543,0.0001521,53.2166,28.7205,97.1481,262.9685,3.6603e-05,2.95e-06,0.0,0 STARLINK-5271,1 54194U 22141AP  23034.27127508  .00000295  00000-0  36603-4 0  9995,2 54194  53.2166  28.7205 0001521  97.1481 262.9685 15.08843543 15578,6917.87,95.437,540.787,538.682,0.0
54194.0,STARLINK-5271,PAYLOAD,2023-02-04 06:21:25,15.08833901,0.0001504,53.2173,24.2618,100.3207,259.7955,4.2673e-05,3.91e-06,0.0,0 STARLINK-5271,1 54194U 22141AP  23035.26488328  .00000391  00000-0  42673-4 0  9996,2 54194  53.2173  24.2618 0001504 100.3207 259.7955 15.08833901 15727,6917.899,95.438,540.804,538.724,0.0
54194.0,STARLINK-5271,PAYLOAD,2023-02-04 09:32:11,15.08838099,0.0001453,53.2168,23.6655,98.0535,262.0622,5.1464e-05,5.31e-06,0.0,0 STARLINK-5271,1 54194U 22141AP  23035.39736069  .00000531  00000-0  51464-4 0  9992,2 54194  53.2168  23.6655 0001453  98.0535 262.0622 15.08838099 15513,6917.886,95.438,540.756,538.746,0.0
54194.0,STARLINK-5271,PAYLOAD,2023-02-05 07:47:36,15.08838089,0.0001381,53.2171,19.5013,93.7302,266.3848,-1.7767e-05,-5.71e-06,0.0,0 STARLINK-5271,1 54194U 22141AP  23036.32472680 -.00000571  00000-0 -17767-4 0  9996,2 54194  53.2171  19.5013 0001381  93.7302 266.3848 15.08838089 15889,6917.886,95.438,540.707,538.796,0.0
54194.0,STARLINK-5271,PAYLOAD,2023-02-06 07:38:22,15.08846134,0.0001541,53.2181,15.0421,84.1306,275.9862,8.4192e-05,1.052e-05,0.0,0 STARLINK-5271,1 54194U 22141AP  23037.31831944  .00001052  00000-0  84192-4 0  9997,2 54194  53.2181  15.0421 0001541  84.1306 275.9862 15.08846134 16030,6917.862,95.437,540.793,538.661,0.0
54194.0,STARLINK-5271,PAYLOAD,2023-02-07 04:18:23,15.0884272,0.0001472,53.218,11.1768,85.3035,274.8126,4.8995e-05,4.92e-06,0.0,0 STARLINK-5271,1 54194U 22141AP  23038.17944192  .00000492  00000-0  48995-4 0  9990,2 54194  53.2180  11.1768 0001472  85.3035 274.8126 15.08842720 16167,6917.872,95.437,540.755,538.719,0.0
54194.0,STARLINK-5271,PAYLOAD,2023-02-07 07:29:09,15.08853158,0.000153,53.2183,10.5802,81.7428,278.3738,0.00014072,1.953e-05,0.0,0 STARLINK-5271,1 54194U 22141AP  23038.31191229  .00001953  00000-0  14072-3 0  9992,2 54194  53.2183  10.5802 0001530  81.7428 278.3738 15.08853158 16180,6917.84,95.437,540.764,538.647,0.0
54194.0,STARLINK-5271,PAYLOAD,2023-02-08 07:19:55,15.08864851,0.0001457,53.2188,6.1195,96.3412,263.7747,5.976e-05,6.64e-06,0.0,0 STARLINK-5271,1 54194U 22141AP  23039.30550285  .00000664  00000-0  59760-4 0  9995,2 54194  53.2188   6.1195 0001457  96.3412 263.7747 15.08864851 16106,6917.804,95.436,540.677,538.662,0.0
54194.0,STARLINK-5271,PAYLOAD,2023-02-09 03:59:57,15.08848283,0.0001161,53.217,2.2541,94.076,266.0365,6.1269e-06,-1.9e-06,0.0,0 STARLINK-5271,1 54194U 22141AP  23040.16663531 -.00000190  00000-0  61269-5 0  9993,2 54194  53.2170   2.2541 0001161  94.0760 266.0365 15.08848283 16464,6917.855,95.437,540.523,538.917,0.0
54194.0,STARLINK-5271,PAYLOAD,2023-02-09 07:10:43,15.08850108,0.0001169,53.2172,1.6593,92.7603,267.3523,-2.1304e-07,-2.91e-06,0.0,0 STARLINK-5271,1 54194U 22141AP  23040.29911354 -.00000291  00000-0 -21304-6 0  9996,2 54194  53.2172   1.6593 0001169  92.7603 267.3523 15.08850108 16251,6917.849,95.437,540.523,538.906,0.0
54194.0,STARLINK-5271,PAYLOAD,2023-02-10 03:50:44,15.08847275,0.0001117,53.2183,357.7937,86.1432,273.9688,-6.393e-05,-1.305e-05,0.0,0 STARLINK-5271,1 54194U 22141AP  23041.16024159 -.00001305  00000-0 -63930-4 0  9997,2 54194  53.2183 357.7937 0001117  86.1432 273.9688 15.08847275 16380,6917.858,95.437,540.496,538.95,0.0
54194.0,STARLINK-5271,PAYLOAD,2023-02-10 05:26:07,15.0884552,0.0001231,53.2175,357.4952,90.0423,270.071,-2.3255e-05,-6.58e-06,0.0,0 STARLINK-5271,1 54194U 22141AP  23041.22648134 -.00000658  00000-0 -23255-4 0  9995,2 54194  53.2175 357.4952 0001231  90.0423 270.0710 15.08845520 16628,6917.864,95.437,540.58,538.877,0.0
